$$SOE
2460728.500000000, A.D. 2025-Feb-22 00:00:00.0000, 2.226405519384318E+09, 5.214184564381861E+09, -6.133156255493145E+08,
2460735.500000000, A.D. 2025-Mar-01 00:00:00.0000, 2.223402958775927E+09, 5.215728749094408E+09, -6.140760754364727E+08,
2460742.500000000, A.D. 2025-Mar-08 00:00:00.0000, 2.220399812038267E+09, 5.217271477202280E+09, -6.148363641232059E+08,
2460749.500000000, A.D. 2025-Mar-15 00:00:00.0000, 2.217396084477830E+09, 5.218812750532424E+09, -6.155964917540352E+08,
2460756.500000000, A.D. 2025-Mar-22 00:00:00.0000, 2.214391780230495E+09, 5.220352573055258E+09, -6.163564582251577E+08,
2460763.500000000, A.D. 2025-Mar-29 00:00:00.0000, 2.211386901400458E+09, 5.221890949052524E+09, -6.171162632493131E+08,
2460770.500000000, A.D. 2025-Apr-05 00:00:00.0000, 2.208381448893738E+09, 5.223427882168877E+09, -6.178759065030656E+08,
2460777.500000000, A.D. 2025-Apr-12 00:00:00.0000, 2.205375423020296E+09, 5.224963375451405E+09, -6.186353876716647E+08,
2460784.500000000, A.D. 2025-Apr-19 00:00:00.0000, 2.202368823677590E+09, 5.226497431495967E+09, -6.193947064466066E+08,
2460791.500000000, A.D. 2025-Apr-26 00:00:00.0000, 2.199361650387210E+09, 5.228030052497734E+09, -6.201538625176902E+08,
2460798.500000000, A.D. 2025-May-03 00:00:00.0000, 2.196353902298273E+09, 5.229561240225410E+09, -6.209128555686386E+08,
2460805.500000000, A.D. 2025-May-10 00:00:00.0000, 2.193345578186171E+09, 5.231090995928202E+09, -6.216716852783720E+08,
2460812.500000000, A.D. 2025-May-17 00:00:00.0000, 2.190336676483408E+09, 5.232619320134808E+09, -6.224303513348150E+08,
2460819.500000000, A.D. 2025-May-24 00:00:00.0000, 2.187327195516427E+09, 5.234146212290238E+09, -6.231888534816999E+08,
2460826.500000000, A.D. 2025-May-31 00:00:00.0000, 2.184317134366224E+09, 5.235671670541727E+09, -6.239471916113534E+08,
2460833.500000000, A.D. 2025-Jun-07 00:00:00.0000, 2.181306493951801E+09, 5.237195692878694E+09, -6.247053657682259E+08,
2460840.500000000, A.D. 2025-Jun-14 00:00:00.0000, 2.178295275971892E+09, 5.238718278960176E+09, -6.254633759008088E+08,
2460847.500000000, A.D. 2025-Jun-21 00:00:00.0000, 2.175283480921752E+09, 5.240239429358485E+09, -6.262212217408309E+08,
2460854.500000000, A.D. 2025-Jun-28 00:00:00.0000, 2.172271108313182E+09, 5.241759143983986E+09, -6.269789029524326E+08,
2460861.500000000, A.D. 2025-Jul-05 00:00:00.0000, 2.169258157581082E+09, 5.243277421847610E+09, -6.277364192359066E+08,
2460868.500000000, A.D. 2025-Jul-12 00:00:00.0000, 2.166244628485535E+09, 5.244794261355927E+09, -6.284937703425472E+08,
2460875.500000000, A.D. 2025-Jul-19 00:00:00.0000, 2.163230521198980E+09, 5.246309660563837E+09, -6.292509560648918E+08,
2460882.500000000, A.D. 2025-Jul-26 00:00:00.0000, 2.160215836288415E+09, 5.247823617328480E+09, -6.300079762261765E+08,
2460889.500000000, A.D. 2025-Aug-02 00:00:00.0000, 2.157200574658010E+09, 5.249336129386152E+09, -6.307648306731043E+08,
2460896.500000000, A.D. 2025-Aug-09 00:00:00.0000, 2.154184737475556E+09, 5.250847194337861E+09, -6.315215192751346E+08,
2460903.500000000, A.D. 2025-Aug-16 00:00:00.0000, 2.151168326159683E+09, 5.252356809480503E+09, -6.322780419423511E+08,
2460910.500000000, A.D. 2025-Aug-23 00:00:00.0000, 2.148151342720480E+09, 5.253864971500495E+09, -6.330343986871727E+08,
2460917.500000000, A.D. 2025-Aug-30 00:00:00.0000, 2.145133790782451E+09, 5.255371676744085E+09, -6.337905897015152E+08,
2460924.500000000, A.D. 2025-Sep-06 00:00:00.0000, 2.142115675871684E+09, 5.256876923064819E+09, -6.345466152373164E+08,
2460931.500000000, A.D. 2025-Sep-13 00:00:00.0000, 2.139097003296461E+09, 5.258380710765477E+09, -6.353024753398526E+08,
2460938.500000000, A.D. 2025-Sep-20 00:00:00.0000, 2.136077776894572E+09, 5.259883040990134E+09, -6.360581698681893E+08,
2460945.500000000, A.D. 2025-Sep-27 00:00:00.0000, 2.133057999705842E+09, 5.261383914678165E+09, -6.368136986453660E+08,
2460952.500000000, A.D. 2025-Oct-04 00:00:00.0000, 2.130037674553217E+09, 5.262883332619534E+09, -6.375690615090992E+08,
2460959.500000000, A.D. 2025-Oct-11 00:00:00.0000, 2.127016804158723E+09, 5.264381295668571E+09, -6.383242583056862E+08,
2460966.500000000, A.D. 2025-Oct-18 00:00:00.0000, 2.123995391077991E+09, 5.265877804842098E+09, -6.390792888755155E+08,
2460973.500000000, A.D. 2025-Oct-25 00:00:00.0000, 2.120973437592853E+09, 5.267372861313210E+09, -6.398341530421169E+08,
2460980.500000000, A.D. 2025-Nov-01 00:00:00.0000, 2.117950945601439E+09, 5.268866466316630E+09, -6.405888506072035E+08,
2460987.500000000, A.D. 2025-Nov-08 00:00:00.0000, 2.114927916540260E+09, 5.270358620934662E+09, -6.413433813575985E+08,
2460994.500000000, A.D. 2025-Nov-15 00:00:00.0000, 2.111904351486107E+09, 5.271849325705657E+09, -6.420977451025844E+08,
2461001.500000000, A.D. 2025-Nov-22 00:00:00.0000, 2.108880251840393E+09, 5.273338580275555E+09, -6.428519417608449E+08,
2461008.500000000, A.D. 2025-Nov-29 00:00:00.0000, 2.105855620442663E+09, 5.274826384227926E+09, -6.436059713904037E+08,
2461015.500000000, A.D. 2025-Dec-06 00:00:00.0000, 2.102830460835813E+09, 5.276312738956923E+09, -6.443598339639890E+08,
2461022.500000000, A.D. 2025-Dec-13 00:00:00.0000, 2.099804775116617E+09, 5.277797647213113E+09, -6.451135292051868E+08,
2461029.500000000, A.D. 2025-Dec-20 00:00:00.0000, 2.096778563864740E+09, 5.279281111345779E+09, -6.458670567222965E+08,
2461036.500000000, A.D. 2025-Dec-27 00:00:00.0000, 2.093751827076381E+09, 5.280763132833351E+09, -6.466204161296837E+08,
2461043.500000000, A.D. 2026-Jan-03 00:00:00.0000, 2.090724564643368E+09, 5.282243712487009E+09, -6.473736070731323E+08,
2461050.500000000, A.D. 2026-Jan-10 00:00:00.0000, 2.087696776487425E+09, 5.283722850649205E+09, -6.481266292246959E+08,
2461057.500000000, A.D. 2026-Jan-17 00:00:00.0000, 2.084668462582202E+09, 5.285200547296386E+09, -6.488794822758100E+08,
2461064.500000000, A.D. 2026-Jan-24 00:00:00.0000, 2.081639622940999E+09, 5.286676802069430E+09, -6.496321659338598E+08,
2461071.500000000, A.D. 2026-Jan-31 00:00:00.0000, 2.078610257593633E+09, 5.288151614225356E+09, -6.503846799248557E+08,
2461078.500000000, A.D. 2026-Feb-07 00:00:00.0000, 2.075580366613979E+09, 5.289624982453848E+09, -6.511370240124373E+08,
2461085.500000000, A.D. 2026-Feb-14 00:00:00.0000, 2.072549950451224E+09, 5.291096904544221E+09, -6.518891980575531E+08,
2461092.500000000, A.D. 2026-Feb-21 00:00:00.0000, 2.069519010952418E+09, 5.292567377480629E+09, -6.526412021071062E+08,
2461099.500000000, A.D. 2026-Feb-28 00:00:00.0000, 2.066487551991461E+09, 5.294036399119596E+09, -6.533930363176975E+08,
2461106.500000000, A.D. 2026-Mar-07 00:00:00.0000, 2.063455577645993E+09, 5.295503969500278E+09, -6.541447006849537E+08,
2461113.500000000, A.D. 2026-Mar-14 00:00:00.0000, 2.060423090697887E+09, 5.296970089454854E+09, -6.548961950235605E+08,
2461120.500000000, A.D. 2026-Mar-21 00:00:00.0000, 2.057390093240229E+09, 5.298434759417109E+09, -6.556475191245995E+08,
2461127.500000000, A.D. 2026-Mar-28 00:00:00.0000, 2.054356587381398E+09, 5.299897979457897E+09, -6.563986728217020E+08,
2461134.500000000, A.D. 2026-Apr-04 00:00:00.0000, 2.051322575442506E+09, 5.301359749581822E+09, -6.571496559894025E+08,
2461141.500000000, A.D. 2026-Apr-11 00:00:00.0000, 2.048288059922141E+09, 5.302820069925203E+09, -6.579004685280504E+08,
2461148.500000000, A.D. 2026-Apr-18 00:00:00.0000, 2.045253043387812E+09, 5.304278940848595E+09, -6.586511103502357E+08,
2461155.500000000, A.D. 2026-Apr-25 00:00:00.0000, 2.042217528340149E+09, 5.305736362938544E+09, -6.594015813715248E+08,
2461162.500000000, A.D. 2026-May-02 00:00:00.0000, 2.039181517080898E+09, 5.307192336888990E+09, -6.601518815105600E+08,
2461169.500000000, A.D. 2026-May-09 00:00:00.0000, 2.036145011709688E+09, 5.308646863196047E+09, -6.609020107151804E+08,
2461176.500000000, A.D. 2026-May-16 00:00:00.0000, 2.033108014627896E+09, 5.310099941804575E+09, -6.616519690378180E+08,
2461183.500000000, A.D. 2026-May-23 00:00:00.0000, 2.030070529601723E+09, 5.311551572728917E+09, -6.624017566812816E+08,
2461190.500000000, A.D. 2026-May-30 00:00:00.0000, 2.027032561306252E+09, 5.313001757967402E+09, -6.631513737981851E+08,
2461197.500000000, A.D. 2026-Jun-06 00:00:00.0000, 2.023994113033270E+09, 5.314450501437081E+09, -6.639008202825058E+08,
2461204.500000000, A.D. 2026-Jun-13 00:00:00.0000, 2.020955186228885E+09, 5.315897807127661E+09, -6.646500958733926E+08,
2461211.500000000, A.D. 2026-Jun-20 00:00:00.0000, 2.017915781359905E+09, 5.317343678400773E+09, -6.653992002863250E+08,
2461218.500000000, A.D. 2026-Jun-27 00:00:00.0000, 2.014875898410643E+09, 5.318788118094748E+09, -6.661481332438893E+08,
2461225.500000000, A.D. 2026-Jul-04 00:00:00.0000, 2.011835537010009E+09, 5.320231128660044E+09, -6.668968944697568E+08,
2461232.500000000, A.D. 2026-Jul-11 00:00:00.0000, 2.008794696442820E+09, 5.321672712193480E+09, -6.676454836802115E+08,
2461239.500000000, A.D. 2026-Jul-18 00:00:00.0000, 2.005753375638037E+09, 5.323112870397038E+09, -6.683939005798864E+08,
2461246.500000000, A.D. 2026-Jul-25 00:00:00.0000, 2.002711573158330E+09, 5.324551604464048E+09, -6.691421448639736E+08,
2461253.500000000, A.D. 2026-Aug-01 00:00:00.0000, 1.999669287239070E+09, 5.325988914844715E+09, -6.698902162354310E+08,
2461260.500000000, A.D. 2026-Aug-08 00:00:00.0000, 1.996626516091570E+09, 5.327424800855138E+09, -6.706381144599676E+08,
2461267.500000000, A.D. 2026-Aug-15 00:00:00.0000, 1.993583258885537E+09, 5.328859260580401E+09, -6.713858394601889E+08,
2461274.500000000, A.D. 2026-Aug-22 00:00:00.0000, 1.990539516649608E+09, 5.330292292293131E+09, -6.721333912793217E+08,
2461281.500000000, A.D. 2026-Aug-29 00:00:00.0000, 1.987495290800721E+09, 5.331723896014949E+09, -6.728807698167911E+08,
2461288.500000000, A.D. 2026-Sep-05 00:00:00.0000, 1.984450581435881E+09, 5.333154072352880E+09, -6.736279747657311E+08,
2461295.500000000, A.D. 2026-Sep-12 00:00:00.0000, 1.981405387841129E+09, 5.334582821106483E+09, -6.743750057736192E+08,
$$EOE